{"type": "FeatureCollection", "features": [{"type": "Feature", "properties": {}, "geometry": {"type": "Polygon", "coordinates": [[[0.4828, 0.7958], [0.4786, 0.7988], [0.4804, 0.7994], [0.4828, 0.7958]]]}}, {"type": "Feature", "properties": {}, "geometry": {"type": "Polygon", "coordinates": [[[0.5656, 0.791], [0.5632, 0.791], [0.5626, 0.7928], [0.5644, 0.7934], [0.5656, 0.791]]]}}, {"type": "Feature", "properties": {}, "geometry": {"type": "Polygon", "coordinates": [[[0.334, 0.6842], [0.3328, 0.6866], [0.3346, 0.686], [0.334, 0.6842]]]}}, {"type": "Feature", "properties": {}, "geometry": {"type": "Polygon", "coordinates": [[[0.1264, 0.6518], [0.1258, 0.6536], [0.1276, 0.6542], [0.1264, 0.6518]]]}}, {"type": "Feature", "properties": {}, "geometry": {"type": "Polygon", "coordinates": [[[-0.26, 0.6482], [-0.2642, 0.65], [-0.2588, 0.653], [-0.2582, 0.65], [-0.26, 0.6482]]]}}, {"type": "Feature", "properties": {}, "geometry": {"type": "Polygon", "coordinates": [[[-0.4328, 0.6386], [-0.437, 0.6404], [-0.434, 0.6434], [-0.4322, 0.6416], [-0.4328, 0.6386]]]}}, {"type": "Feature", "properties": {}, "geometry": {"type": "Polygon", "coordinates": [[[-0.2732, 0.5678], [-0.2774, 0.5708], [-0.281, 0.5768], [-0.278, 0.5846], [-0.2678, 0.578], [-0.2732, 0.5678]]]}}, {"type": "Feature", "properties": {}, "geometry": {"type": "Polygon", "coordinates": [[[-0.0368, 0.5642], [-0.0386, 0.566], [-0.0332, 0.5702], [-0.0338, 0.5684], [-0.0314, 0.5672], [-0.0368, 0.5642]]]}}, {"type": "Feature", "properties": {}, "geometry": {"type": "Polygon", "coordinates": [[[-0.0416, 0.5582], [-0.0434, 0.5588], [-0.0434, 0.5612], [-0.0404, 0.563], [-0.0416, 0.5582]]]}}, {"type": "Feature", "properties": {}, "geometry": {"type": "Polygon", "coordinates": [[[-0.0824, 0.5558], [-0.0854, 0.5576], [-0.0836, 0.5582], [-0.0824, 0.5558]]]}}, {"type": "Feature", "properties": {}, "geometry": {"type": "Polygon", "coordinates": [[[-0.0368, 0.551], [-0.0404, 0.5522], [-0.0434, 0.5564], [-0.038, 0.5558], [-0.0362, 0.554], [-0.0368, 0.551]]]}}, {"type": "Feature", "properties": {}, "geometry": {"type": "Polygon", "coordinates": [[[-0.386, 0.5342], [-0.3878, 0.5348], [-0.3848, 0.539], [-0.3752, 0.5438], [-0.3674, 0.5396], [-0.3704, 0.5378], [-0.3716, 0.539], [-0.3836, 0.5366], [-0.386, 0.5342]]]}}, {"type": "Feature", "properties": {}, "geometry": {"type": "Polygon", "coordinates": [[[-0.3224, 0.5198], [-0.3272, 0.521], [-0.3284, 0.5198], [-0.3302, 0.5228], [-0.3272, 0.5234], [-0.3224, 0.5198]]]}}, {"type": "Feature", "properties": {}, "geometry": {"type": "Polygon", "coordinates": [[[-0.326, 0.4922], [-0.329, 0.4988], [-0.32, 0.509], [-0.3218, 0.4988], [-0.326, 0.4922]]]}}, {"type": "Feature", "properties": {}, "geometry": {"type": "Polygon", "coordinates": [[[-0.296, 0.485], [-0.302, 0.485], [-0.3026, 0.4868], [-0.2996, 0.4874], [-0.2984, 0.4898], [-0.2954, 0.4868], [-0.296, 0.485]]]}}, {"type": "Feature", "properties": {}, "geometry": {"type": "Polygon", "coordinates": [[[0.2524, 0.4682], [0.247, 0.4712], [0.25, 0.4718], [0.2524, 0.4682]]]}}, {"type": "Feature", "properties": {}, "geometry": {"type": "Polygon", "coordinates": [[[-0.1628, 0.4658], [-0.1658, 0.4688], [-0.1652, 0.4706], [-0.161, 0.4676], [-0.1628, 0.4658]]]}}, {"type": "Feature", "properties": {}, "geometry": {"type": "Polygon", "coordinates": [[[0.406, 0.4394], [0.4042, 0.4412], [0.406, 0.443], [0.406, 0.4394]]]}}, {"type": "Feature", "properties": {}, "geometry": {"type": "Polygon", "coordinates": [[[0.3952, 0.4214], [0.3898, 0.4256], [0.3898, 0.428], [0.3862, 0.4316], [0.388, 0.4382], [0.391, 0.4376], [0.3946, 0.4304], [0.3952, 0.4214]]]}}, {"type": "Feature", "properties": {}, "geometry": {"type": "Polygon", "coordinates": [[[0.4096, 0.4214], [0.4072, 0.4274], [0.4126, 0.4268], [0.4126, 0.4232], [0.4096, 0.4214]]]}}, {"type": "Feature", "properties": {}, "geometry": {"type": "Polygon", "coordinates": [[[-0.3104, 0.3974], [-0.3158, 0.4004], [-0.3182, 0.4076], [-0.314, 0.4082], [-0.3116, 0.4034], [-0.308, 0.4046], [-0.3038, 0.4208], [-0.2948, 0.4214], [-0.2942, 0.4172], [-0.2966, 0.4136], [-0.2978, 0.404], [-0.302, 0.3998], [-0.308, 0.3998], [-0.3104, 0.3974]]]}}, {"type": "Feature", "properties": {}, "geometry": {"type": "Polygon", "coordinates": [[[-0.1148, 0.3866], [-0.119, 0.3908], [-0.1184, 0.3938], [-0.113, 0.3884], [-0.1148, 0.3866]]]}}, {"type": "Feature", "properties": {}, "geometry": {"type": "Polygon", "coordinates": [[[0.1792, 0.3722], [0.1798, 0.3824], [0.1816, 0.3854], [0.184, 0.3854], [0.1792, 0.3722]]]}}, {"type": "Feature", "properties": {}, "geometry": {"type": "Polygon", "coordinates": [[[0.3352, 0.3734], [0.3334, 0.3752], [0.3352, 0.3782], [0.3382, 0.3752], [0.3352, 0.3734]]]}}, {"type": "Feature", "properties": {}, "geometry": {"type": "Polygon", "coordinates": [[[0.0772, 0.3698], [0.0754, 0.374], [0.0796, 0.377], [0.0772, 0.3698]]]}}, {"type": "Feature", "properties": {}, "geometry": {"type": "Polygon", "coordinates": [[[0.1768, 0.365], [0.175, 0.3656], [0.1756, 0.3686], [0.1774, 0.368], [0.1768, 0.365]]]}}, {"type": "Feature", "properties": {}, "geometry": {"type": "Polygon", "coordinates": [[[0.2404, 0.3266], [0.2374, 0.3284], [0.2398, 0.3308], [0.2398, 0.3368], [0.2422, 0.3392], [0.2434, 0.3476], [0.2452, 0.3482], [0.2458, 0.3428], [0.2404, 0.3266]]]}}, {"type": "Feature", "properties": {}, "geometry": {"type": "Polygon", "coordinates": [[[0.304, 0.3158], [0.301, 0.3188], [0.301, 0.3248], [0.3064, 0.3338], [0.3094, 0.3284], [0.3046, 0.3212], [0.3058, 0.3188], [0.304, 0.3158]]]}}, {"type": "Feature", "properties": {}, "geometry": {"type": "Polygon", "coordinates": [[[0.6376, 0.3278], [0.6376, 0.3302], [0.6406, 0.3296], [0.6376, 0.3278]]]}}, {"type": "Feature", "properties": {}, "geometry": {"type": "Polygon", "coordinates": [[[0.2236, 0.3038], [0.2218, 0.3044], [0.223, 0.308], [0.2308, 0.3146], [0.2314, 0.3128], [0.2236, 0.3038]]]}}, {"type": "Feature", "properties": {}, "geometry": {"type": "Polygon", "coordinates": [[[-0.3044, 0.293], [-0.308, 0.293], [-0.3086, 0.296], [-0.3068, 0.2966], [-0.3044, 0.293]]]}}, {"type": "Feature", "properties": {}, "geometry": {"type": "Polygon", "coordinates": [[[-0.2984, 0.293], [-0.3026, 0.296], [-0.2984, 0.2966], [-0.2954, 0.2948], [-0.2984, 0.293]]]}}, {"type": "Feature", "properties": {}, "geometry": {"type": "Polygon", "coordinates": [[[-0.4088, 0.2246], [-0.4112, 0.2246], [-0.4118, 0.2276], [-0.4034, 0.2372], [-0.4046, 0.2384], [-0.3962, 0.2504], [-0.3968, 0.2522], [-0.4034, 0.2528], [-0.4058, 0.26], [-0.4034, 0.2672], [-0.3992, 0.2726], [-0.3998, 0.2648], [-0.3962, 0.26], [-0.3938, 0.2504], [-0.3986, 0.236], [-0.3974, 0.2348], [-0.4088, 0.2246]]]}}, {"type": "Feature", "properties": {}, "geometry": {"type": "Polygon", "coordinates": [[[-0.2684, 0.2546], [-0.2726, 0.26], [-0.272, 0.263], [-0.2678, 0.2576], [-0.2684, 0.2546]]]}}, {"type": "Feature", "properties": {}, "geometry": {"type": "Polygon", "coordinates": [[[0.2128, 0.2306], [0.211, 0.2336], [0.2152, 0.239], [0.217, 0.236], [0.2128, 0.2306]]]}}, {"type": "Feature", "properties": {}, "geometry": {"type": "Polygon", "coordinates": [[[0.2092, 0.2318], [0.2014, 0.2336], [0.2032, 0.2366], [0.2092, 0.2366], [0.2092, 0.2318]]]}}, {"type": "Feature", "properties": {}, "geometry": {"type": "Polygon", "coordinates": [[[0.25, 0.221], [0.2482, 0.2228], [0.2536, 0.227], [0.2542, 0.224], [0.25, 0.221]]]}}, {"type": "Feature", "properties": {}, "geometry": {"type": "Polygon", "coordinates": [[[0.3976, 0.2054], [0.3946, 0.2084], [0.3928, 0.2198], [0.397, 0.2132], [0.4006, 0.212], [0.3976, 0.2054]]]}}, {"type": "Feature", "properties": {}, "geometry": {"type": "Polygon", "coordinates": [[[-0.4184, 0.2006], [-0.4202, 0.2024], [-0.4196, 0.209], [-0.4178, 0.2072], [-0.4184, 0.2006]]]}}, {"type": "Feature", "properties": {}, "geometry": {"type": "Polygon", "coordinates": [[[0.298, 0.1898], [0.2824, 0.197], [0.2794, 0.2], [0.2806, 0.2036], [0.2836, 0.2066], [0.2956, 0.2054], [0.2974, 0.1952], [0.2998, 0.1916], [0.298, 0.1898]]]}}, {"type": "Feature", "properties": {}, "geometry": {"type": "Polygon", "coordinates": [[[-0.3416, 0.1838], [-0.347, 0.1856], [-0.3422, 0.1904], [-0.341, 0.1964], [-0.3344, 0.2006], [-0.3308, 0.2054], [-0.3248, 0.2054], [-0.3212, 0.203], [-0.32, 0.2042], [-0.3152, 0.2018], [-0.3146, 0.1988], [-0.3122, 0.1976], [-0.32, 0.1922], [-0.3296, 0.1934], [-0.3332, 0.1886], [-0.3416, 0.1838]]]}}, {"type": "Feature", "properties": {}, "geometry": {"type": "Polygon", "coordinates": [[[-0.0584, 0.1922], [-0.062, 0.1922], [-0.0698, 0.1964], [-0.0668, 0.1982], [-0.0584, 0.1922]]]}}, {"type": "Feature", "properties": {}, "geometry": {"type": "Polygon", "coordinates": [[[-0.2996, 0.1718], [-0.3098, 0.1784], [-0.3086, 0.1832], [-0.3122, 0.1892], [-0.3104, 0.197], [-0.3092, 0.1946], [-0.3014, 0.1904], [-0.2996, 0.1718]]]}}, {"type": "Feature", "properties": {}, "geometry": {"type": "Polygon", "coordinates": [[[-0.4328, 0.1166], [-0.4394, 0.122], [-0.4418, 0.128], [-0.4442, 0.1292], [-0.4442, 0.1352], [-0.4418, 0.14], [-0.443, 0.1604], [-0.4382, 0.17], [-0.4298, 0.1748], [-0.4298, 0.1772], [-0.4226, 0.1856], [-0.4238, 0.188], [-0.4208, 0.1886], [-0.4214, 0.1904], [-0.4184, 0.1934], [-0.419, 0.1868], [-0.4226, 0.1832], [-0.425, 0.1748], [-0.4346, 0.164], [-0.4346, 0.1568], [-0.4322, 0.1556], [-0.4286, 0.1424], [-0.4328, 0.1166]]]}}, {"type": "Feature", "properties": {}, "geometry": {"type": "Polygon", "coordinates": [[[0.352, 0.1574], [0.3514, 0.1604], [0.3556, 0.1646], [0.355, 0.1592], [0.352, 0.1574]]]}}, {"type": "Feature", "properties": {}, "geometry": {"type": "Polygon", "coordinates": [[[-0.2684, 0.0182], [-0.2714, 0.0212], [-0.2708, 0.0242], [-0.2792, 0.0218], [-0.2846, 0.0248], [-0.2822, 0.0308], [-0.2858, 0.0332], [-0.2858, 0.0404], [-0.2822, 0.0452], [-0.2798, 0.056], [-0.284, 0.059], [-0.2888, 0.059], [-0.296, 0.0638], [-0.2972, 0.0626], [-0.3002, 0.0656], [-0.2978, 0.0692], [-0.2978, 0.074], [-0.3002, 0.0776], [-0.2966, 0.086], [-0.2942, 0.0872], [-0.2918, 0.098], [-0.2966, 0.0992], [-0.296, 0.1022], [-0.3008, 0.1022], [-0.3062, 0.098], [-0.3092, 0.0926], [-0.314, 0.0962], [-0.3152, 0.095], [-0.317, 0.098], [-0.3134, 0.1028], [-0.3134, 0.1076], [-0.3098, 0.1112], [-0.3122, 0.1232], [-0.3062, 0.1316], [-0.3098, 0.1424], [-0.2972, 0.155], [-0.2894, 0.1472], [-0.2834, 0.1352], [-0.2822, 0.1256], [-0.278, 0.125], [-0.2642, 0.1076], [-0.2642, 0.08], [-0.2654, 0.0752], [-0.2702, 0.0728], [-0.2678, 0.062], [-0.2702, 0.0536], [-0.2738, 0.05], [-0.2738, 0.0428], [-0.2702, 0.0392], [-0.2678, 0.0296], [-0.2654, 0.0272], [-0.2654, 0.0224], [-0.2684, 0.0182]]]}}, {"type": "Feature", "properties": {}, "geometry": {"type": "Polygon", "coordinates": [[[0.4216, 0.0758], [0.4198, 0.0776], [0.4216, 0.0794], [0.4234, 0.0776], [0.4216, 0.0758]]]}}, {"type": "Feature", "properties": {}, "geometry": {"type": "Polygon", "coordinates": [[[-0.1628, 0.0698], [-0.1646, 0.0716], [-0.1628, 0.0734], [-0.1628, 0.0698]]]}}, {"type": "Feature", "properties": {}, "geometry": {"type": "Polygon", "coordinates": [[[-0.0224, -0.0322], [-0.0248, -0.0322], [-0.0266, -0.0292], [-0.0242, -0.0088], [-0.017, 0.002], [-0.0134, 0.0116], [-0.0074, 0.0188], [-0.0062, 0.0236], [-0.0008, 0.029], [0.01, 0.0242], [0.0472, 0.0254], [0.0664, 0.0194], [0.0688, 0.0206], [0.0742, 0.0164], [0.0754, 0.0116], [0.079, 0.008], [0.0736, 0.0002], [0.064, -0.0022], [0.058, -0.007], [0.04, -0.013], [0.028, -0.0142], [0.0196, -0.019], [0.0088, -0.0202], [-0.0032, -0.0286], [-0.0152, -0.0274], [-0.0224, -0.0322]]]}}, {"type": "Feature", "properties": {}, "geometry": {"type": "Polygon", "coordinates": [[[0.454, 0.0266], [0.451, 0.0284], [0.4528, 0.029], [0.454, 0.0266]]]}}, {"type": "Feature", "properties": {}, "geometry": {"type": "Polygon", "coordinates": [[[0.154, -0.0466], [0.1504, -0.0406], [0.1468, -0.0394], [0.1408, -0.0322], [0.139, -0.0328], [0.1378, -0.0172], [0.1354, -0.0112], [0.1396, 0.0026], [0.1462, -0.004], [0.1486, -0.0148], [0.1606, -0.0304], [0.1726, -0.0412], [0.1684, -0.0442], [0.1648, -0.043], [0.154, -0.0466]]]}}, {"type": "Feature", "properties": {}, "geometry": {"type": "Polygon", "coordinates": [[[-0.5024, -0.0394], [-0.503, -0.0364], [-0.5, -0.0346], [-0.4994, -0.0364], [-0.5024, -0.0394]]]}}, {"type": "Feature", "properties": {}, "geometry": {"type": "Polygon", "coordinates": [[[-0.4076, -0.0466], [-0.4094, -0.046], [-0.4076, -0.043], [-0.4076, -0.0466]]]}}, {"type": "Feature", "properties": {}, "geometry": {"type": "Polygon", "coordinates": [[[0.2236, -0.0754], [0.2194, -0.0712], [0.2236, -0.0646], [0.2236, -0.0754]]]}}, {"type": "Feature", "properties": {}, "geometry": {"type": "Polygon", "coordinates": [[[-0.3968, -0.0766], [-0.3986, -0.0736], [-0.398, -0.0694], [-0.395, -0.0724], [-0.3968, -0.0766]]]}}, {"type": "Feature", "properties": {}, "geometry": {"type": "Polygon", "coordinates": [[[0.3748, -0.0874], [0.3742, -0.0808], [0.376, -0.0802], [0.3766, -0.0856], [0.3748, -0.0874]]]}}, {"type": "Feature", "properties": {}, "geometry": {"type": "Polygon", "coordinates": [[[0.334, -0.091], [0.3316, -0.091], [0.3298, -0.088], [0.3316, -0.0826], [0.3346, -0.0844], [0.3358, -0.0892], [0.334, -0.091]]]}}, {"type": "Feature", "properties": {}, "geometry": {"type": "Polygon", "coordinates": [[[0.154, -0.1954], [0.1468, -0.1954], [0.1438, -0.1924], [0.139, -0.1804], [0.139, -0.1744], [0.1492, -0.169], [0.1612, -0.1726], [0.169, -0.1816], [0.169, -0.184], [0.1612, -0.193], [0.154, -0.1954]]]}}, {"type": "Feature", "properties": {}, "geometry": {"type": "Polygon", "coordinates": [[[-0.128, -0.175], [-0.1298, -0.172], [-0.128, -0.1702], [-0.128, -0.175]]]}}, {"type": "Feature", "properties": {}, "geometry": {"type": "Polygon", "coordinates": [[[0.3268, -0.1906], [0.3208, -0.1894], [0.3196, -0.1906], [0.319, -0.1876], [0.3268, -0.187], [0.331, -0.1888], [0.3268, -0.1906]]]}}, {"type": "Feature", "properties": {}, "geometry": {"type": "Polygon", "coordinates": [[[0.1624, -0.2698], [0.1612, -0.2674], [0.1642, -0.268], [0.1624, -0.2698]]]}}, {"type": "Feature", "properties": {}, "geometry": {"type": "Polygon", "coordinates": [[[-0.398, -0.307], [-0.4046, -0.3052], [-0.3992, -0.3022], [-0.3962, -0.3052], [-0.398, -0.307]]]}}, {"type": "Feature", "properties": {}, "geometry": {"type": "Polygon", "coordinates": [[[0.4, -0.3202], [0.3934, -0.316], [0.394, -0.3118], [0.3988, -0.3106], [0.4006, -0.3124], [0.3982, -0.3148], [0.4, -0.3202]]]}}, {"type": "Feature", "properties": {}, "geometry": {"type": "Polygon", "coordinates": [[[0.4156, -0.3322], [0.4102, -0.3304], [0.4078, -0.3232], [0.4084, -0.3166], [0.4138, -0.3208], [0.4132, -0.3238], [0.421, -0.3292], [0.4156, -0.3322]]]}}, {"type": "Feature", "properties": {}, "geometry": {"type": "Polygon", "coordinates": [[[0.244, -0.397], [0.2416, -0.3946], [0.2356, -0.3946], [0.2284, -0.391], [0.223, -0.3856], [0.2218, -0.3808], [0.2356, -0.3814], [0.238, -0.379], [0.2476, -0.3814], [0.2524, -0.3778], [0.2584, -0.3778], [0.2626, -0.37], [0.2728, -0.361], [0.2764, -0.3598], [0.2836, -0.3526], [0.2908, -0.3514], [0.2992, -0.355], [0.3004, -0.3574], [0.3076, -0.3598], [0.316, -0.3598], [0.3226, -0.3664], [0.322, -0.3682], [0.3136, -0.3682], [0.31, -0.3718], [0.304, -0.3718], [0.3004, -0.3694], [0.2968, -0.3706], [0.2932, -0.3658], [0.2884, -0.3742], [0.2824, -0.3682], [0.268, -0.3898], [0.2608, -0.3934], [0.25, -0.391], [0.2482, -0.3952], [0.244, -0.397]]]}}, {"type": "Feature", "properties": {}, "geometry": {"type": "Polygon", "coordinates": [[[0.184, -0.379], [0.175, -0.3736], [0.1786, -0.364], [0.1774, -0.3616], [0.1972, -0.3646], [0.1972, -0.367], [0.193, -0.3664], [0.193, -0.3748], [0.184, -0.379]]]}}, {"type": "Feature", "properties": {}, "geometry": {"type": "Polygon", "coordinates": [[[0.3304, -0.3994], [0.3274, -0.3988], [0.3268, -0.3946], [0.3304, -0.3994]]]}}, {"type": "Feature", "properties": {}, "geometry": {"type": "Polygon", "coordinates": [[[0.406, -0.4078], [0.4, -0.4078], [0.397, -0.4024], [0.4024, -0.397], [0.4072, -0.397], [0.4114, -0.4], [0.4114, -0.4048], [0.406, -0.4078]]]}}, {"type": "Feature", "properties": {}, "geometry": {"type": "Polygon", "coordinates": [[[0.3244, -0.427], [0.3238, -0.4228], [0.328, -0.4186], [0.3286, -0.4216], [0.3244, -0.427]]]}}, {"type": "Feature", "properties": {}, "geometry": {"type": "Polygon", "coordinates": [[[0.334, -0.4378], [0.331, -0.4372], [0.3328, -0.433], [0.3376, -0.433], [0.3394, -0.4348], [0.334, -0.4378]]]}}, {"type": "Feature", "properties": {}, "geometry": {"type": "Polygon", "coordinates": [[[0.1708, -0.4726], [0.1678, -0.472], [0.1708, -0.469], [0.1726, -0.4708], [0.1708, -0.4726]]]}}, {"type": "Feature", "properties": {}, "geometry": {"type": "Polygon", "coordinates": [[[0.376, -0.4954], [0.3718, -0.4936], [0.3748, -0.4846], [0.3766, -0.4852], [0.3742, -0.4888], [0.376, -0.4954]]]}}, {"type": "Feature", "properties": {}, "geometry": {"type": "Polygon", "coordinates": [[[0.3496, -0.5086], [0.3478, -0.5068], [0.3538, -0.502], [0.3532, -0.4966], [0.3604, -0.4966], [0.3664, -0.4906], [0.3706, -0.4936], [0.364, -0.4966], [0.3604, -0.5026], [0.3592, -0.5014], [0.3496, -0.5086]]]}}, {"type": "Feature", "properties": {}, "geometry": {"type": "Polygon", "coordinates": [[[-0.4208, -0.4954], [-0.4196, -0.4918], [-0.4154, -0.4936], [-0.4208, -0.4954]]]}}, {"type": "Feature", "properties": {}, "geometry": {"type": "Polygon", "coordinates": [[[0.3184, -0.5386], [0.3118, -0.538], [0.3106, -0.5344], [0.3154, -0.5308], [0.3148, -0.5278], [0.304, -0.5254], [0.2956, -0.5218], [0.2944, -0.5194], [0.2788, -0.5206], [0.2728, -0.5242], [0.268, -0.5242], [0.2668, -0.5266], [0.2596, -0.529], [0.2554, -0.5284], [0.2644, -0.5254], [0.2704, -0.5194], [0.2776, -0.5182], [0.292, -0.511], [0.3052, -0.5098], [0.3136, -0.5014], [0.3364, -0.5062], [0.3388, -0.505], [0.3418, -0.5068], [0.3424, -0.5098], [0.349, -0.5104], [0.3484, -0.5158], [0.3352, -0.523], [0.3328, -0.5266], [0.3304, -0.5266], [0.3274, -0.532], [0.3184, -0.5386]]]}}, {"type": "Feature", "properties": {}, "geometry": {"type": "Polygon", "coordinates": [[[0.226, -0.5398], [0.2224, -0.5362], [0.217, -0.5344], [0.2284, -0.5326], [0.244, -0.5326], [0.247, -0.5344], [0.244, -0.5374], [0.2332, -0.5374], [0.226, -0.5398]]]}}, {"type": "Feature", "properties": {}, "geometry": {"type": "Polygon", "coordinates": [[[-0.4064, -0.595], [-0.4184, -0.583], [-0.425, -0.5824], [-0.41, -0.5734], [-0.4016, -0.5734], [-0.3932, -0.5674], [-0.3854, -0.5824], [-0.3884, -0.5866], [-0.3944, -0.5866], [-0.4064, -0.595]]]}}, {"type": "Feature", "properties": {}, "geometry": {"type": "Polygon", "coordinates": [[[-0.3548, -0.5926], [-0.3578, -0.592], [-0.356, -0.5902], [-0.3548, -0.5926]]]}}, {"type": "Feature", "properties": {}, "geometry": {"type": "Polygon", "coordinates": [[[-0.3284, -0.607], [-0.3314, -0.6052], [-0.3296, -0.6046], [-0.3284, -0.607]]]}}, {"type": "Feature", "properties": {}, "geometry": {"type": "Polygon", "coordinates": [[[-0.302, -0.6118], [-0.305, -0.6112], [-0.2972, -0.6058], [-0.293, -0.6064], [-0.302, -0.6118]]]}}, {"type": "Feature", "properties": {}, "geometry": {"type": "Polygon", "coordinates": [[[-0.488, -0.6358], [-0.491, -0.634], [-0.4886, -0.6292], [-0.4784, -0.6226], [-0.4778, -0.628], [-0.488, -0.6358]]]}}, {"type": "Feature", "properties": {}, "geometry": {"type": "Polygon", "coordinates": [[[-0.2996, -0.6634], [-0.3014, -0.6628], [-0.3008, -0.661], [-0.2978, -0.6616], [-0.2996, -0.6634]]]}}, {"type": "Feature", "properties": {}, "geometry": {"type": "Polygon", "coordinates": [[[-0.302, -0.7162], [-0.3044, -0.7126], [-0.3014, -0.7132], [-0.302, -0.7162]]]}}]}