{"type": "FeatureCollection", "features": [{"type": "Feature", "properties": {"name": "Circulo_A_40k", "tier": "large", "population": 40000}, "geometry": {"type": "Point", "coordinates": [0.3796257890427481, -0.45629937568116324]}}, {"type": "Feature", "properties": {"name": "Circulo_B_35k", "tier": "large", "population": 35000}, "geometry": {"type": "Point", "coordinates": [0.1925301302300879, 0.35324914802746227]}}, {"type": "Feature", "properties": {"name": "Circulo_C_25k", "tier": "large", "population": 25000}, "geometry": {"type": "Point", "coordinates": [-0.40833477403364743, 0.49477022328319237]}}, {"type": "Feature", "properties": {"name": "Circulo_D_20k", "tier": "large", "population": 20000}, "geometry": {"type": "Point", "coordinates": [-0.31118895118861234, -0.5618405165498433]}}, {"type": "Feature", "properties": {"name": "Circulo_E1_2k", "tier": "medium", "population": 2000}, "geometry": {"type": "Point", "coordinates": [-0.12169463008348225, 0.5475407937175324]}}, {"type": "Feature", "properties": {"name": "Circulo_E2_2k", "tier": "medium", "population": 2000}, "geometry": {"type": "Point", "coordinates": [-0.3615608593304823, 0.15895750233739223]}}, {"type": "Feature", "properties": {"name": "Circulo_E3_2k", "tier": "medium", "population": 2000}, "geometry": {"type": "Point", "coordinates": [0.07019835331411783, -0.152868595683708]}}, {"type": "Feature", "properties": {"name": "Circulo_E4_2k", "tier": "medium", "population": 2000}, "geometry": {"type": "Point", "coordinates": [0.44918699552437813, -0.16126391370735305]}}, {"type": "Feature", "properties": {"name": "Circulo_E5_2k", "tier": "medium", "population": 2000}, "geometry": {"type": "Point", "coordinates": [0.505555559397423, 0.5979127018594024]}}, {"type": "Feature", "properties": {"name": "Circulo_F1_small", "tier": "small", "population": 625}, "geometry": {"type": "Point", "coordinates": [0.21052009742361294, 0.2704952989372472]}}, {"type": "Feature", "properties": {"name": "Circulo_F2_small", "tier": "small", "population": 625}, "geometry": {"type": "Point", "coordinates": [0.10258029426246296, 0.34125583656511227]}}, {"type": "Feature", "properties": {"name": "Circulo_F3_small", "tier": "small", "population": 625}, "geometry": {"type": "Point", "coordinates": [0.3316525431933481, 0.49357089213695726]}}, {"type": "Feature", "properties": {"name": "Circulo_F4_small", "tier": "small", "population": 625}, "geometry": {"type": "Point", "coordinates": [0.32445655631593806, 0.3232658693715872]}}, {"type": "Feature", "properties": {"name": "Circulo_F5_small", "tier": "small", "population": 625}, "geometry": {"type": "Point", "coordinates": [0.40001441852874303, -0.38074151346835816]}}, {"type": "Feature", "properties": {"name": "Circulo_F6_small", "tier": "small", "population": 625}, "geometry": {"type": "Point", "coordinates": [-0.3315775806746073, 0.4995675478681324]}}, {"type": "Feature", "properties": {"name": "Circulo_F7_small", "tier": "small", "population": 625}, "geometry": {"type": "Point", "coordinates": [0.23330738920207794, -0.4119241232704681]}}, {"type": "Feature", "properties": {"name": "Circulo_F8_small", "tier": "small", "population": 625}, "geometry": {"type": "Point", "coordinates": [0.34124719236322804, -0.5006746280918583]}}]}